{"fetched_at":"2026-07-18T06:27:49.000Z","source":"https://celestrak.org/NORAD/elements/gp.php?GROUP=qianfan&FORMAT=JSON","constellation":"qianfan","records":[{"OBJECT_NAME":"QIANFAN-49","OBJECT_ID":"2024-232P","EPOCH":"2026-07-17T22:04:00.919776","CLASSIFICATION_TYPE":"U","MEAN_MOTION":13.51014143,"ECCENTRICITY":0.00122081,"INCLINATION":89.0075,"RA_OF_ASC_NODE":19.4166,"ARG_OF_PERICENTER":290.5915,"MEAN_ANOMALY":69.3926,"EPHEMERIS_TYPE":0,"NORAD_CAT_ID":62250,"ELEMENT_SET_NO":999,"REV_AT_EPOCH":9716,"BSTAR":-0.000018134428,"MEAN_MOTION_DOT":0,"MEAN_MOTION_DDOT":0},{"OBJECT_NAME":"QIANFAN-50","OBJECT_ID":"2024-232Q","EPOCH":"2026-07-17T22:39:43.161984","CLASSIFICATION_TYPE":"U","MEAN_MOTION":13.5101097,"ECCENTRICITY":0.00138801,"INCLINATION":89.0081,"RA_OF_ASC_NODE":19.4342,"ARG_OF_PERICENTER":291.6672,"MEAN_ANOMALY":68.3001,"EPHEMERIS_TYPE":0,"NORAD_CAT_ID":62251,"ELEMENT_SET_NO":999,"REV_AT_EPOCH":9719,"BSTAR":0.000012460658,"MEAN_MOTION_DOT":2e-7,"MEAN_MOTION_DDOT":0},{"OBJECT_NAME":"QIANFAN-51","OBJECT_ID":"2024-232R","EPOCH":"2026-07-17T22:16:04.117152","CLASSIFICATION_TYPE":"U","MEAN_MOTION":13.51022262,"ECCENTRICITY":0.00114091,"INCLINATION":89.0075,"RA_OF_ASC_NODE":19.4163,"ARG_OF_PERICENTER":296.8829,"MEAN_ANOMALY":63.1156,"EPHEMERIS_TYPE":0,"NORAD_CAT_ID":62252,"ELEMENT_SET_NO":999,"REV_AT_EPOCH":9718,"BSTAR":-0.000002441844,"MEAN_MOTION_DOT":1e-7,"MEAN_MOTION_DDOT":0},{"OBJECT_NAME":"QIANFAN-52","OBJECT_ID":"2024-232S","EPOCH":"2026-07-17T22:57:21.471264","CLASSIFICATION_TYPE":"U","MEAN_MOTION":13.51013925,"ECCENTRICITY":0.00133263,"INCLINATION":89.007,"RA_OF_ASC_NODE":19.2785,"ARG_OF_PERICENTER":287.0606,"MEAN_ANOMALY":72.9085,"EPHEMERIS_TYPE":0,"NORAD_CAT_ID":62253,"ELEMENT_SET_NO":999,"REV_AT_EPOCH":9727,"BSTAR":0.000002539359,"MEAN_MOTION_DOT":1.3e-7,"MEAN_MOTION_DDOT":0},{"OBJECT_NAME":"QIANFAN-53","OBJECT_ID":"2024-232T","EPOCH":"2026-07-17T22:27:49.975776","CLASSIFICATION_TYPE":"U","MEAN_MOTION":13.51009914,"ECCENTRICITY":0.00122238,"INCLINATION":89.0078,"RA_OF_ASC_NODE":19.4016,"ARG_OF_PERICENTER":288.6349,"MEAN_ANOMALY":71.3474,"EPHEMERIS_TYPE":0,"NORAD_CAT_ID":62254,"ELEMENT_SET_NO":999,"REV_AT_EPOCH":9723,"BSTAR":0.00001336629,"MEAN_MOTION_DOT":2e-7,"MEAN_MOTION_DDOT":0},{"OBJECT_NAME":"QIANFAN-54","OBJECT_ID":"2024-232U","EPOCH":"2026-07-17T21:40:21.371232","CLASSIFICATION_TYPE":"U","MEAN_MOTION":13.51013732,"ECCENTRICITY":0.00020443,"INCLINATION":89.0069,"RA_OF_ASC_NODE":19.0641,"ARG_OF_PERICENTER":28.8283,"MEAN_ANOMALY":331.2981,"EPHEMERIS_TYPE":0,"NORAD_CAT_ID":62255,"ELEMENT_SET_NO":999,"REV_AT_EPOCH":12873,"BSTAR":0.000019342115,"MEAN_MOTION_DOT":2.4e-7,"MEAN_MOTION_DDOT":0},{"OBJECT_NAME":"QIANFAN-55","OBJECT_ID":"2025-016A","EPOCH":"2026-07-17T22:18:02.728800","CLASSIFICATION_TYPE":"U","MEAN_MOTION":13.51011382,"ECCENTRICITY":0.00194078,"INCLINATION":88.9713,"RA_OF_ASC_NODE":80.6885,"ARG_OF_PERICENTER":80.5743,"MEAN_ANOMALY":279.7601,"EPHEMERIS_TYPE":0,"NORAD_CAT_ID":62785,"ELEMENT_SET_NO":999,"REV_AT_EPOCH":7651,"BSTAR":0.00011062887,"MEAN_MOTION_DOT":8.4e-7,"MEAN_MOTION_DDOT":0},{"OBJECT_NAME":"QIANFAN-56","OBJECT_ID":"2025-016B","EPOCH":"2026-07-17T22:41:47.743872","CLASSIFICATION_TYPE":"U","MEAN_MOTION":13.51010001,"ECCENTRICITY":0.00180395,"INCLINATION":88.9687,"RA_OF_ASC_NODE":80.4652,"ARG_OF_PERICENTER":82.6345,"MEAN_ANOMALY":277.6855,"EPHEMERIS_TYPE":0,"NORAD_CAT_ID":62786,"ELEMENT_SET_NO":999,"REV_AT_EPOCH":7656,"BSTAR":0.00010328486,"MEAN_MOTION_DOT":7.9e-7,"MEAN_MOTION_DDOT":0},{"OBJECT_NAME":"QIANFAN-57","OBJECT_ID":"2025-016C","EPOCH":"2026-07-17T21:42:26.859456","CLASSIFICATION_TYPE":"U","MEAN_MOTION":13.51010026,"ECCENTRICITY":0.00013233,"INCLINATION":88.9718,"RA_OF_ASC_NODE":80.6906,"ARG_OF_PERICENTER":84.8827,"MEAN_ANOMALY":275.2475,"EPHEMERIS_TYPE":0,"NORAD_CAT_ID":62787,"ELEMENT_SET_NO":999,"REV_AT_EPOCH":7652,"BSTAR":0.000094446781,"MEAN_MOTION_DOT":7.3e-7,"MEAN_MOTION_DDOT":0},{"OBJECT_NAME":"QIANFAN-58","OBJECT_ID":"2025-016D","EPOCH":"2026-07-17T21:00:47.577888","CLASSIFICATION_TYPE":"U","MEAN_MOTION":13.51014542,"ECCENTRICITY":0.00159546,"INCLINATION":88.9688,"RA_OF_ASC_NODE":80.459,"ARG_OF_PERICENTER":76.1226,"MEAN_ANOMALY":284.1699,"EPHEMERIS_TYPE":0,"NORAD_CAT_ID":62788,"ELEMENT_SET_NO":999,"REV_AT_EPOCH":7656,"BSTAR":0.00010578032,"MEAN_MOTION_DOT":8.1e-7,"MEAN_MOTION_DDOT":0},{"OBJECT_NAME":"QIANFAN-59","OBJECT_ID":"2025-016E","EPOCH":"2026-07-17T21:36:22.640256","CLASSIFICATION_TYPE":"U","MEAN_MOTION":13.51018767,"ECCENTRICITY":0.0016326,"INCLINATION":88.9711,"RA_OF_ASC_NODE":80.5814,"ARG_OF_PERICENTER":79.3985,"MEAN_ANOMALY":280.9004,"EPHEMERIS_TYPE":0,"NORAD_CAT_ID":62789,"ELEMENT_SET_NO":999,"REV_AT_EPOCH":7656,"BSTAR":0.00009941754,"MEAN_MOTION_DOT":7.6e-7,"MEAN_MOTION_DDOT":0},{"OBJECT_NAME":"QIANFAN-60","OBJECT_ID":"2025-016F","EPOCH":"2026-07-17T22:24:00.419616","CLASSIFICATION_TYPE":"U","MEAN_MOTION":13.51021659,"ECCENTRICITY":0.00178725,"INCLINATION":88.9692,"RA_OF_ASC_NODE":80.5081,"ARG_OF_PERICENTER":76.1377,"MEAN_ANOMALY":284.1761,"EPHEMERIS_TYPE":0,"NORAD_CAT_ID":62790,"ELEMENT_SET_NO":999,"REV_AT_EPOCH":7655,"BSTAR":0.00011239369,"MEAN_MOTION_DOT":8.5e-7,"MEAN_MOTION_DDOT":0},{"OBJECT_NAME":"QIANFAN-61","OBJECT_ID":"2025-016G","EPOCH":"2026-07-17T21:24:45.379296","CLASSIFICATION_TYPE":"U","MEAN_MOTION":13.51002221,"ECCENTRICITY":0.00168381,"INCLINATION":88.9759,"RA_OF_ASC_NODE":80.8225,"ARG_OF_PERICENTER":75.9113,"MEAN_ANOMALY":284.3908,"EPHEMERIS_TYPE":0,"NORAD_CAT_ID":62791,"ELEMENT_SET_NO":999,"REV_AT_EPOCH":7656,"BSTAR":0.00011382025,"MEAN_MOTION_DOT":8.6e-7,"MEAN_MOTION_DDOT":0},{"OBJECT_NAME":"QIANFAN-62","OBJECT_ID":"2025-016H","EPOCH":"2026-07-17T21:30:23.598144","CLASSIFICATION_TYPE":"U","MEAN_MOTION":13.51014163,"ECCENTRICITY":0.00181778,"INCLINATION":88.9706,"RA_OF_ASC_NODE":80.5736,"ARG_OF_PERICENTER":76.0381,"MEAN_ANOMALY":284.2791,"EPHEMERIS_TYPE":0,"NORAD_CAT_ID":62792,"ELEMENT_SET_NO":999,"REV_AT_EPOCH":7655,"BSTAR":0.000092825754,"MEAN_MOTION_DOT":7.2e-7,"MEAN_MOTION_DDOT":0},{"OBJECT_NAME":"QIANFAN-63","OBJECT_ID":"2025-016J","EPOCH":"2026-07-17T22:06:03.650112","CLASSIFICATION_TYPE":"U","MEAN_MOTION":13.51017397,"ECCENTRICITY":0.0018237,"INCLINATION":88.9712,"RA_OF_ASC_NODE":80.5372,"ARG_OF_PERICENTER":80.7295,"MEAN_ANOMALY":279.5918,"EPHEMERIS_TYPE":0,"NORAD_CAT_ID":62793,"ELEMENT_SET_NO":999,"REV_AT_EPOCH":7659,"BSTAR":0.00011326207,"MEAN_MOTION_DOT":8.5e-7,"MEAN_MOTION_DDOT":0},{"OBJECT_NAME":"QIANFAN-64","OBJECT_ID":"2025-016K","EPOCH":"2026-07-17T21:18:44.790624","CLASSIFICATION_TYPE":"U","MEAN_MOTION":13.51013918,"ECCENTRICITY":0.00161674,"INCLINATION":88.9699,"RA_OF_ASC_NODE":80.4856,"ARG_OF_PERICENTER":74.6171,"MEAN_ANOMALY":285.6766,"EPHEMERIS_TYPE":0,"NORAD_CAT_ID":62794,"ELEMENT_SET_NO":999,"REV_AT_EPOCH":7658,"BSTAR":0.00013315736,"MEAN_MOTION_DOT":9.8e-7,"MEAN_MOTION_DDOT":0}]}
