QIANFAN-49              
1 62250U 24232P   26198.91945509  .00000000  00000+0 -18134-4 0  9997
2 62250  89.0075  19.4166 0012208 290.5915  69.3926 13.51014143 97168
QIANFAN-50              
1 62251U 24232Q   26198.94424956  .00000020  00000+0  12461-4 0  9997
2 62251  89.0081  19.4342 0013880 291.6672  68.3001 13.51010970 97191
QIANFAN-51              
1 62252U 24232R   26198.92782543  .00000010  00000+0 -24418-5 0  9991
2 62252  89.0075  19.4163 0011409 296.8829  63.1156 13.51022262 97182
QIANFAN-52              
1 62253U 24232S   26198.95649851  .00000013  00000+0  25394-5 0  9995
2 62253  89.0070  19.2785 0013326 287.0606  72.9085 13.51013925 97276
QIANFAN-53              
1 62254U 24232T   26198.93599509  .00000020  00000+0  13366-4 0  9991
2 62254  89.0078  19.4016 0012223 288.6349  71.3474 13.51009914 97234
QIANFAN-54              
1 62255U 24232U   26198.90302513  .00000024  00000+0  19342-4 0  9990
2 62255  89.0069  19.0641 0002044  28.8283 331.2981 13.51013732128730
QIANFAN-55              
1 62785U 25016A   26198.92919825  .00000084  00000+0  11063-3 0  9998
2 62785  88.9713  80.6885 0019407  80.5743 279.7601 13.51011382 76515
QIANFAN-56              
1 62786U 25016B   26198.94569148  .00000079  00000+0  10328-3 0  9997
2 62786  88.9687  80.4652 0018039  82.6345 277.6855 13.51010001 76567
QIANFAN-57              
1 62787U 25016C   26198.90447754  .00000073  00000+0  94447-4 0  9991
2 62787  88.9718  80.6906 0001323  84.8827 275.2475 13.51010026 76529
QIANFAN-58              
1 62788U 25016D   26198.87555067  .00000081  00000+0  10578-3 0  9996
2 62788  88.9688  80.4590 0015954  76.1226 284.1699 13.51014542 76563
QIANFAN-59              
1 62789U 25016E   26198.90026204  .00000076  00000+0  99418-4 0  9992
2 62789  88.9711  80.5814 0016326  79.3985 280.9004 13.51018767 76569
QIANFAN-60              
1 62790U 25016F   26198.93333819  .00000085  00000+0  11239-3 0  9994
2 62790  88.9692  80.5081 0017872  76.1377 284.1761 13.51021659 76551
QIANFAN-61              
1 62791U 25016G   26198.89219189  .00000086  00000+0  11382-3 0  9993
2 62791  88.9759  80.8225 0016838  75.9113 284.3908 13.51002221 76565
QIANFAN-62              
1 62792U 25016H   26198.89610646  .00000072  00000+0  92826-4 0  9995
2 62792  88.9706  80.5736 0018177  76.0381 284.2791 13.51014163 76555
QIANFAN-63              
1 62793U 25016J   26198.92087558  .00000085  00000+0  11326-3 0  9999
2 62793  88.9712  80.5372 0018237  80.7295 279.5918 13.51017397 76596
QIANFAN-64              
1 62794U 25016K   26198.88801841  .00000098  00000+0  13316-3 0  9999
2 62794  88.9699  80.4856 0016167  74.6171 285.6766 13.51013918 76585
